[{"OBJECT_NAME":"PROBA-2","OBJECT_ID":"2009-059B","EPOCH":"2026-03-09T22:14:08.403360","MEAN_MOTION":14.54791624,"ECCENTRICITY":0.00123546,"INCLINATION":98.2432,"RA_OF_ASC_NODE":253.6562,"ARG_OF_PERICENTER":223.465,"MEAN_ANOMALY":136.5574,"EPHEMERIS_TYPE":0,"CLASSIFICATION_TYPE":"U","NORAD_CAT_ID":36037,"ELEMENT_SET_NO":999,"REV_AT_EPOCH":86709,"BSTAR":9.6228268e-5,"MEAN_MOTION_DOT":3.67e-6,"MEAN_MOTION_DDOT":0},{"OBJECT_NAME":"COSMOS 1900 DEB","OBJECT_ID":"1987-101D","EPOCH":"2026-03-09T04:22:16.555584","MEAN_MOTION":14.60059002,"ECCENTRICITY":0.00302671,"INCLINATION":66.0796,"RA_OF_ASC_NODE":269.9064,"ARG_OF_PERICENTER":169.0383,"MEAN_ANOMALY":191.1392,"EPHEMERIS_TYPE":0,"CLASSIFICATION_TYPE":"U","NORAD_CAT_ID":43499,"ELEMENT_SET_NO":999,"REV_AT_EPOCH":58014,"BSTAR":0.00021295757,"MEAN_MOTION_DOT":9.25e-6,"MEAN_MOTION_DDOT":0}]
